{
  "type": "FeatureCollection",
  "features": [
    {
      "type": "Feature",
      "properties": {
        "norad_id": 26766,
        "name": "INTELSAT 10 (IS-10)",
        "group": "intelsat",
        "lat": 8.220839601621105,
        "lon": 132.55650926251965,
        "alt_km": 36153.573691175865,
        "timestamp": "2025-12-18T19:29:52.210342+00:00",
        "meta_object_name": "INTELSAT 10 (IS-10)",
        "meta_object_id": "2001-019A",
        "meta_epoch": "2025-12-18T03:25:21.560160",
        "meta_mean_motion": 0.9907635,
        "meta_eccentricity": 0.00076765,
        "meta_inclination": 8.6418,
        "meta_ra_of_asc_node": 61.1029,
        "meta_arg_of_pericenter": 228.0739,
        "meta_mean_anomaly": 324.7094,
        "meta_ephemeris_type": 0,
        "meta_classification_type": "U",
        "meta_norad_cat_id": 26766,
        "meta_element_set_no": 999,
        "meta_rev_at_epoch": 4378,
        "meta_bstar": 0,
        "meta_mean_motion_dot": -1.75e-06,
        "meta_mean_motion_ddot": 0,
        "tle_line1": "1 26766U 01019A   25352.14261065 -.00000175  00000+0  00000+0 0  9992",
        "tle_line2": "2 26766   8.6418  61.1029 0007676 228.0739 324.7094  0.99076350 43782"
      },
      "geometry": {
        "type": "Point",
        "coordinates": [
          132.55650926251965,
          8.220839601621105
        ]
      }
    },
    {
      "type": "Feature",
      "properties": {
        "norad_id": 26900,
        "name": "INTELSAT 902 (IS-902)",
        "group": "intelsat",
        "lat": -5.507636233995208,
        "lon": -30.005813267715332,
        "alt_km": 35779.74675480156,
        "timestamp": "2025-12-18T19:29:52.210365+00:00",
        "meta_object_name": "INTELSAT 902 (IS-902)",
        "meta_object_id": "2001-039A",
        "meta_epoch": "2025-12-15T13:09:02.081664",
        "meta_mean_motion": 1.0027087,
        "meta_eccentricity": 0.00045028,
        "meta_inclination": 5.6536,
        "meta_ra_of_asc_node": 74.0372,
        "meta_arg_of_pericenter": 189.6359,
        "meta_mean_anomaly": 327.9329,
        "meta_ephemeris_type": 0,
        "meta_classification_type": "U",
        "meta_norad_cat_id": 26900,
        "meta_element_set_no": 999,
        "meta_rev_at_epoch": 8885,
        "meta_bstar": 0,
        "meta_mean_motion_dot": -2.65e-06,
        "meta_mean_motion_ddot": 0,
        "tle_line1": "1 26900U 01039A   25349.54794076 -.00000265  00000+0  00000+0 0  9997",
        "tle_line2": "2 26900   5.6536  74.0372 0004502 189.6359 327.9329  1.00270870 88858"
      },
      "geometry": {
        "type": "Point",
        "coordinates": [
          -30.005813267715332,
          -5.507636233995208
        ]
      }
    },
    {
      "type": "Feature",
      "properties": {
        "norad_id": 27380,
        "name": "INTELSAT 904 (IS-904)",
        "group": "intelsat",
        "lat": -6.422662318703714,
        "lon": -11.307380941256127,
        "alt_km": 35780.97777452246,
        "timestamp": "2025-12-18T19:29:52.210381+00:00",
        "meta_object_name": "INTELSAT 904 (IS-904)",
        "meta_object_id": "2002-007A",
        "meta_epoch": "2025-12-18T01:09:35.057088",
        "meta_mean_motion": 1.00271697,
        "meta_eccentricity": 0.00016961,
        "meta_inclination": 6.4672,
        "meta_ra_of_asc_node": 71.3717,
        "meta_arg_of_pericenter": 245.1992,
        "meta_mean_anomaly": 116.2426,
        "meta_ephemeris_type": 0,
        "meta_classification_type": "U",
        "meta_norad_cat_id": 27380,
        "meta_element_set_no": 999,
        "meta_rev_at_epoch": 4995,
        "meta_bstar": 0,
        "meta_mean_motion_dot": -2.06e-06,
        "meta_mean_motion_ddot": 0,
        "tle_line1": "1 27380U 02007A   25352.04832242 -.00000206  00000+0  00000+0 0  9998",
        "tle_line2": "2 27380   6.4672  71.3717 0001696 245.1992 116.2426  1.00271697 49959"
      },
      "geometry": {
        "type": "Point",
        "coordinates": [
          -11.307380941256127,
          -6.422662318703714
        ]
      }
    },
    {
      "type": "Feature",
      "properties": {
        "norad_id": 27426,
        "name": "DIRECTV 5 (TEMPO 1)",
        "group": "intelsat",
        "lat": -0.9766786226579696,
        "lon": -90.02412175320306,
        "alt_km": 35771.930735934424,
        "timestamp": "2025-12-18T19:29:52.210395+00:00",
        "meta_object_name": "DIRECTV 5 (TEMPO 1)",
        "meta_object_id": "2002-023A",
        "meta_epoch": "2025-12-18T05:54:42.500736",
        "meta_mean_motion": 1.0027274,
        "meta_eccentricity": 0.00034076,
        "meta_inclination": 4.4155,
        "meta_ra_of_asc_node": 77.589,
        "meta_arg_of_pericenter": 206.3889,
        "meta_mean_anomaly": 141.6968,
        "meta_ephemeris_type": 0,
        "meta_classification_type": "U",
        "meta_norad_cat_id": 27426,
        "meta_element_set_no": 999,
        "meta_rev_at_epoch": 8630,
        "meta_bstar": 0,
        "meta_mean_motion_dot": -3.6e-07,
        "meta_mean_motion_ddot": 0,
        "tle_line1": "1 27426U 02023A   25352.24632524 -.00000036  00000+0  00000+0 0  9991",
        "tle_line2": "2 27426   4.4155  77.5890 0003407 206.3889 141.6968  1.00272740 86303"
      },
      "geometry": {
        "type": "Point",
        "coordinates": [
          -90.02412175320306,
          -0.9766786226579696
        ]
      }
    },
    {
      "type": "Feature",
      "properties": {
        "norad_id": 27438,
        "name": "INTELSAT 905 (IS-905)",
        "group": "intelsat",
        "lat": 0.9688458159344341,
        "lon": -117.03535727126041,
        "alt_km": 35776.07239272883,
        "timestamp": "2025-12-18T19:29:52.210407+00:00",
        "meta_object_name": "INTELSAT 905 (IS-905)",
        "meta_object_id": "2002-027A",
        "meta_epoch": "2025-12-18T06:36:35.632224",
        "meta_mean_motion": 1.00271763,
        "meta_eccentricity": 0.00026227,
        "meta_inclination": 6.2988,
        "meta_ra_of_asc_node": 71.9922,
        "meta_arg_of_pericenter": 198.5826,
        "meta_mean_anomaly": 138.5031,
        "meta_ephemeris_type": 0,
        "meta_classification_type": "U",
        "meta_norad_cat_id": 27438,
        "meta_element_set_no": 999,
        "meta_rev_at_epoch": 4954,
        "meta_bstar": 0,
        "meta_mean_motion_dot": 1.13e-06,
        "meta_mean_motion_ddot": 0,
        "tle_line1": "1 27438U 02027A   25352.27541241  .00000113  00000+0  00000+0 0  9991",
        "tle_line2": "2 27438   6.2988  71.9922 0002622 198.5826 138.5031  1.00271763 49540"
      },
      "geometry": {
        "type": "Point",
        "coordinates": [
          -117.03535727126041,
          0.9688458159344341
        ]
      }
    },
    {
      "type": "Feature",
      "properties": {
        "norad_id": 27445,
        "name": "GALAXY 3C (G-3C)",
        "group": "intelsat",
        "lat": -1.4018923132032042,
        "lon": -74.7557265615687,
        "alt_km": 35789.08824647535,
        "timestamp": "2025-12-18T19:29:52.210419+00:00",
        "meta_object_name": "GALAXY 3C (G-3C)",
        "meta_object_id": "2002-030A",
        "meta_epoch": "2025-12-18T06:03:28.954944",
        "meta_mean_motion": 1.00271889,
        "meta_eccentricity": 0.00011154,
        "meta_inclination": 3.2771,
        "meta_ra_of_asc_node": 80.4507,
        "meta_arg_of_pericenter": 77.8152,
        "meta_mean_anomaly": 284.8606,
        "meta_ephemeris_type": 0,
        "meta_classification_type": "U",
        "meta_norad_cat_id": 27445,
        "meta_element_set_no": 999,
        "meta_rev_at_epoch": 4468,
        "meta_bstar": 0,
        "meta_mean_motion_dot": -1.3e-06,
        "meta_mean_motion_ddot": 0,
        "tle_line1": "1 27445U 02030A   25352.25241846 -.00000130  00000+0  00000+0 0  9999",
        "tle_line2": "2 27445   3.2771  80.4507 0001115  77.8152 284.8606  1.00271889 44688"
      },
      "geometry": {
        "type": "Point",
        "coordinates": [
          -74.7557265615687,
          -1.4018923132032042
        ]
      }
    },
    {
      "type": "Feature",
      "properties": {
        "norad_id": 27513,
        "name": "INTELSAT 906 (IS-906)",
        "group": "intelsat",
        "lat": 0.8712781481532412,
        "lon": 84.22827217827006,
        "alt_km": 35812.22671389448,
        "timestamp": "2025-12-18T19:29:52.210431+00:00",
        "meta_object_name": "INTELSAT 906 (IS-906)",
        "meta_object_id": "2002-041A",
        "meta_epoch": "2025-12-17T18:46:06.275712",
        "meta_mean_motion": 1.00272325,
        "meta_eccentricity": 0.00062967,
        "meta_inclination": 5.3419,
        "meta_ra_of_asc_node": 75.1722,
        "meta_arg_of_pericenter": 196.6249,
        "meta_mean_anomaly": 160.508,
        "meta_ephemeris_type": 0,
        "meta_classification_type": "U",
        "meta_norad_cat_id": 27513,
        "meta_element_set_no": 999,
        "meta_rev_at_epoch": 8520,
        "meta_bstar": 0,
        "meta_mean_motion_dot": 3.3e-07,
        "meta_mean_motion_ddot": 0,
        "tle_line1": "1 27513U 02041A   25351.78201708  .00000033  00000+0  00000+0 0  9998",
        "tle_line2": "2 27513   5.3419  75.1722 0006296 196.6249 160.5080  1.00272325 85203"
      },
      "geometry": {
        "type": "Point",
        "coordinates": [
          84.22827217827006,
          0.8712781481532412
        ]
      }
    }
  ]
}